[
  {
    "OBJECT_NAME": "STARLINK-1094",
    "OBJECT_ID": "20001AD",
    "EPOCH": "2025-11-11T05:46:38.600256",
    "MEAN_MOTION": 15.06390567,
    "ECCENTRICITY": 0.0001578,
    "INCLINATION": 53.0553,
    "RA_OF_ASC_NODE": 138.3589,
    "ARG_OF_PERICENTER": 89.7087,
    "MEAN_ANOMALY": 270.4083,
    "EPHEMERIS_TYPE": 0,
    "CLASSIFICATION_TYPE": "U",
    "NORAD_CAT_ID": 44941,
    "ELEMENT_SET_NO": 999,
    "REV_AT_EPOCH": 32227,
    "BSTAR": 0.00027201,
    "MEAN_MOTION_DOT": 3.771e-05,
    "MEAN_MOTION_DDOT": 0.0,
    "TLE_LINE1": "1 44941U 20001AD  25315.24072454  .00003771  00000+0  27201-3 0  9991",
    "TLE_LINE2": "2 44941  53.0553 138.3589 0001578  89.7087 270.4083 15.06390567322274",
    "COMMENT": "Grouped by shell and plane from TLE"
  },
  {
    "OBJECT_NAME": "STARLINK-1122",
    "OBJECT_ID": "20001AM",
    "EPOCH": "2025-11-10T22:20:45.885696",
    "MEAN_MOTION": 15.06407486,
    "ECCENTRICITY": 0.0001641,
    "INCLINATION": 53.052,
    "RA_OF_ASC_NODE": 139.742,
    "ARG_OF_PERICENTER": 93.3587,
    "MEAN_ANOMALY": 266.759,
    "EPHEMERIS_TYPE": 0,
    "CLASSIFICATION_TYPE": "U",
    "NORAD_CAT_ID": 44949,
    "ELEMENT_SET_NO": 999,
    "REV_AT_EPOCH": 32222,
    "BSTAR": 0.00033118,
    "MEAN_MOTION_DOT": 4.656e-05,
    "MEAN_MOTION_DDOT": 0.0,
    "TLE_LINE1": "1 44949U 20001AM  25314.93108664  .00004656  00000+0  33118-3 0  9994",
    "TLE_LINE2": "2 44949  53.0520 139.7420 0001641  93.3587 266.7590 15.06407486322227",
    "COMMENT": "Grouped by shell and plane from TLE"
  },
  {
    "OBJECT_NAME": "STARLINK-3527",
    "OBJECT_ID": "22016N",
    "EPOCH": "2025-11-10T21:54:53.873856",
    "MEAN_MOTION": 15.08834092,
    "ECCENTRICITY": 0.0001386,
    "INCLINATION": 53.2139,
    "RA_OF_ASC_NODE": 132.3295,
    "ARG_OF_PERICENTER": 85.102,
    "MEAN_ANOMALY": 275.0131,
    "EPHEMERIS_TYPE": 0,
    "CLASSIFICATION_TYPE": "U",
    "NORAD_CAT_ID": 51726,
    "ELEMENT_SET_NO": 999,
    "REV_AT_EPOCH": 20563,
    "BSTAR": 0.00038344000000000003,
    "MEAN_MOTION_DOT": 5.819e-05,
    "MEAN_MOTION_DDOT": 0.0,
    "TLE_LINE1": "1 51726U 22016N   25314.91312354  .00005819  00000+0  38344-3 0  9992",
    "TLE_LINE2": "2 51726  53.2139 132.3295 0001386  85.1020 275.0131 15.08834092205630",
    "COMMENT": "Grouped by shell and plane from TLE"
  },
  {
    "OBJECT_NAME": "STARLINK-3523",
    "OBJECT_ID": "22016R",
    "EPOCH": "2025-11-10T18:49:25.159008",
    "MEAN_MOTION": 15.08843278,
    "ECCENTRICITY": 0.0001371,
    "INCLINATION": 53.2149,
    "RA_OF_ASC_NODE": 132.9088,
    "ARG_OF_PERICENTER": 92.0417,
    "MEAN_ANOMALY": 268.0733,
    "EPHEMERIS_TYPE": 0,
    "CLASSIFICATION_TYPE": "U",
    "NORAD_CAT_ID": 51729,
    "ELEMENT_SET_NO": 999,
    "REV_AT_EPOCH": 20561,
    "BSTAR": 0.0,
    "MEAN_MOTION_DOT": -9.08e-06,
    "MEAN_MOTION_DDOT": 0.0,
    "TLE_LINE1": "1 51729U 22016R   25314.78431897 -.00000908  00000+0 -38949-4 0  9992",
    "TLE_LINE2": "2 51729  53.2149 132.9088 0001371  92.0417 268.0733 15.08843278205615",
    "COMMENT": "Grouped by shell and plane from TLE"
  },
  {
    "OBJECT_NAME": "STARLINK-3514",
    "OBJECT_ID": "22016T",
    "EPOCH": "2025-11-10T21:49:35.491584",
    "MEAN_MOTION": 15.08842533,
    "ECCENTRICITY": 0.0001454,
    "INCLINATION": 53.2162,
    "RA_OF_ASC_NODE": 132.346,
    "ARG_OF_PERICENTER": 83.1177,
    "MEAN_ANOMALY": 276.9981,
    "EPHEMERIS_TYPE": 0,
    "CLASSIFICATION_TYPE": "U",
    "NORAD_CAT_ID": 51731,
    "ELEMENT_SET_NO": 999,
    "REV_AT_EPOCH": 20563,
    "BSTAR": 8.5854e-05,
    "MEAN_MOTION_DOT": 1.079e-05,
    "MEAN_MOTION_DDOT": 0.0,
    "TLE_LINE1": "1 51731U 22016T   25314.90943856  .00001079  00000+0  85854-4 0  9997",
    "TLE_LINE2": "2 51731  53.2162 132.3460 0001454  83.1177 276.9981 15.08842533205635",
    "COMMENT": "Grouped by shell and plane from TLE"
  },
  {
    "OBJECT_NAME": "STARLINK-3518",
    "OBJECT_ID": "22016U",
    "EPOCH": "2025-11-10T21:28:22.484352",
    "MEAN_MOTION": 15.08860887,
    "ECCENTRICITY": 0.0001719,
    "INCLINATION": 53.2132,
    "RA_OF_ASC_NODE": 132.411,
    "ARG_OF_PERICENTER": 82.709,
    "MEAN_ANOMALY": 277.4097,
    "EPHEMERIS_TYPE": 0,
    "CLASSIFICATION_TYPE": "U",
    "NORAD_CAT_ID": 51732,
    "ELEMENT_SET_NO": 999,
    "REV_AT_EPOCH": 20677,
    "BSTAR": 5.1139000000000006e-05,
    "MEAN_MOTION_DOT": 5.26e-06,
    "MEAN_MOTION_DDOT": 0.0,
    "TLE_LINE1": "1 51732U 22016U   25314.89470468  .00000526  00000+0  51139-4 0  9995",
    "TLE_LINE2": "2 51732  53.2132 132.4110 0001719  82.7090 277.4097 15.08860887206771",
    "COMMENT": "Grouped by shell and plane from TLE"
  },
  {
    "OBJECT_NAME": "STARLINK-3525",
    "OBJECT_ID": "22016V",
    "EPOCH": "2025-11-10T18:29:36.337344",
    "MEAN_MOTION": 15.08841948,
    "ECCENTRICITY": 0.0001487,
    "INCLINATION": 53.2148,
    "RA_OF_ASC_NODE": 132.978,
    "ARG_OF_PERICENTER": 89.8793,
    "MEAN_ANOMALY": 270.237,
    "EPHEMERIS_TYPE": 0,
    "CLASSIFICATION_TYPE": "U",
    "NORAD_CAT_ID": 51733,
    "ELEMENT_SET_NO": 999,
    "REV_AT_EPOCH": 20561,
    "BSTAR": 6.8588e-05,
    "MEAN_MOTION_DOT": 8.04e-06,
    "MEAN_MOTION_DDOT": 0.0,
    "TLE_LINE1": "1 51733U 22016V   25314.77055946  .00000804  00000+0  68588-4 0  9998",
    "TLE_LINE2": "2 51733  53.2148 132.9780 0001487  89.8793 270.2370 15.08841948205611",
    "COMMENT": "Grouped by shell and plane from TLE"
  },
  {
    "OBJECT_NAME": "STARLINK-3450",
    "OBJECT_ID": "22016W",
    "EPOCH": "2025-11-11T05:09:25.441920",
    "MEAN_MOTION": 15.08843435,
    "ECCENTRICITY": 0.000141,
    "INCLINATION": 53.2163,
    "RA_OF_ASC_NODE": 130.9751,
    "ARG_OF_PERICENTER": 88.3534,
    "MEAN_ANOMALY": 271.762,
    "EPHEMERIS_TYPE": 0,
    "CLASSIFICATION_TYPE": "U",
    "NORAD_CAT_ID": 51734,
    "ELEMENT_SET_NO": 999,
    "REV_AT_EPOCH": 20567,
    "BSTAR": 9.4647e-05,
    "MEAN_MOTION_DOT": 1.219e-05,
    "MEAN_MOTION_DDOT": 0.0,
    "TLE_LINE1": "1 51734U 22016W   25315.21487780  .00001219  00000+0  94647-4 0  9990",
    "TLE_LINE2": "2 51734  53.2163 130.9751 0001410  88.3534 271.7620 15.08843435205671",
    "COMMENT": "Grouped by shell and plane from TLE"
  },
  {
    "OBJECT_NAME": "STARLINK-3517",
    "OBJECT_ID": "22016X",
    "EPOCH": "2025-11-11T05:20:01.194720",
    "MEAN_MOTION": 15.08846295,
    "ECCENTRICITY": 0.0001445,
    "INCLINATION": 53.2153,
    "RA_OF_ASC_NODE": 130.9391,
    "ARG_OF_PERICENTER": 96.9111,
    "MEAN_ANOMALY": 263.2046,
    "EPHEMERIS_TYPE": 0,
    "CLASSIFICATION_TYPE": "U",
    "NORAD_CAT_ID": 51735,
    "ELEMENT_SET_NO": 999,
    "REV_AT_EPOCH": 20568,
    "BSTAR": 9.969300000000001e-05,
    "MEAN_MOTION_DOT": 1.299e-05,
    "MEAN_MOTION_DDOT": 0.0,
    "TLE_LINE1": "1 51735U 22016X   25315.22223605  .00001299  00000+0  99693-4 0  9990",
    "TLE_LINE2": "2 51735  53.2153 130.9391 0001445  96.9111 263.2046 15.08846295205681",
    "COMMENT": "Grouped by shell and plane from TLE"
  },
  {
    "OBJECT_NAME": "STARLINK-3447",
    "OBJECT_ID": "22016Y",
    "EPOCH": "2025-11-10T13:16:59.606688",
    "MEAN_MOTION": 15.08845019,
    "ECCENTRICITY": 0.0001266,
    "INCLINATION": 53.2128,
    "RA_OF_ASC_NODE": 134.0292,
    "ARG_OF_PERICENTER": 95.1511,
    "MEAN_ANOMALY": 264.9625,
    "EPHEMERIS_TYPE": 0,
    "CLASSIFICATION_TYPE": "U",
    "NORAD_CAT_ID": 51736,
    "ELEMENT_SET_NO": 999,
    "REV_AT_EPOCH": 20557,
    "BSTAR": 0.00025855,
    "MEAN_MOTION_DOT": 3.83e-05,
    "MEAN_MOTION_DDOT": 0.0,
    "TLE_LINE1": "1 51736U 22016Y   25314.55346767  .00003830  00000+0  25855-3 0  9992",
    "TLE_LINE2": "2 51736  53.2128 134.0292 0001266  95.1511 264.9625 15.08845019205577",
    "COMMENT": "Grouped by shell and plane from TLE"
  },
  {
    "OBJECT_NAME": "STARLINK-3509",
    "OBJECT_ID": "22016Z",
    "EPOCH": "2025-11-11T05:14:41.139744",
    "MEAN_MOTION": 15.08845306,
    "ECCENTRICITY": 9.84e-05,
    "INCLINATION": 53.2144,
    "RA_OF_ASC_NODE": 130.9558,
    "ARG_OF_PERICENTER": 81.7442,
    "MEAN_ANOMALY": 278.3662,
    "EPHEMERIS_TYPE": 0,
    "CLASSIFICATION_TYPE": "U",
    "NORAD_CAT_ID": 51737,
    "ELEMENT_SET_NO": 999,
    "REV_AT_EPOCH": 20567,
    "BSTAR": 0.00043576,
    "MEAN_MOTION_DOT": 6.655e-05,
    "MEAN_MOTION_DDOT": 0.0,
    "TLE_LINE1": "1 51737U 22016Z   25315.21853171  .00006655  00000+0  43576-3 0  9997",
    "TLE_LINE2": "2 51737  53.2144 130.9558 0000984  81.7442 278.3662 15.08845306205676",
    "COMMENT": "Grouped by shell and plane from TLE"
  },
  {
    "OBJECT_NAME": "STARLINK-3515",
    "OBJECT_ID": "22016AA",
    "EPOCH": "2025-11-11T04:48:13.799808",
    "MEAN_MOTION": 15.08842648,
    "ECCENTRICITY": 0.0001501,
    "INCLINATION": 53.2136,
    "RA_OF_ASC_NODE": 131.0398,
    "ARG_OF_PERICENTER": 87.7916,
    "MEAN_ANOMALY": 272.3248,
    "EPHEMERIS_TYPE": 0,
    "CLASSIFICATION_TYPE": "U",
    "NORAD_CAT_ID": 51738,
    "ELEMENT_SET_NO": 999,
    "REV_AT_EPOCH": 20567,
    "BSTAR": 5.412200000000001e-05,
    "MEAN_MOTION_DOT": 5.74e-06,
    "MEAN_MOTION_DDOT": 0.0,
    "TLE_LINE1": "1 51738U 22016AA  25315.20015972  .00000574  00000+0  54122-4 0  9990",
    "TLE_LINE2": "2 51738  53.2136 131.0398 0001501  87.7916 272.3248 15.08842648205670",
    "COMMENT": "Grouped by shell and plane from TLE"
  },
  {
    "OBJECT_NAME": "STARLINK-3516",
    "OBJECT_ID": "22016AB",
    "EPOCH": "2025-11-11T05:04:07.353408",
    "MEAN_MOTION": 15.08847621,
    "ECCENTRICITY": 0.000151,
    "INCLINATION": 53.2145,
    "RA_OF_ASC_NODE": 130.989,
    "ARG_OF_PERICENTER": 89.8067,
    "MEAN_ANOMALY": 270.3098,
    "EPHEMERIS_TYPE": 0,
    "CLASSIFICATION_TYPE": "U",
    "NORAD_CAT_ID": 51739,
    "ELEMENT_SET_NO": 999,
    "REV_AT_EPOCH": 20567,
    "BSTAR": 7.0857e-05,
    "MEAN_MOTION_DOT": 8.4e-06,
    "MEAN_MOTION_DDOT": 0.0,
    "TLE_LINE1": "1 51739U 22016AB  25315.21119622  .00000840  00000+0  70857-4 0  9998",
    "TLE_LINE2": "2 51739  53.2145 130.9890 0001510  89.8067 270.3098 15.08847621205673",
    "COMMENT": "Grouped by shell and plane from TLE"
  }
]